{
  "type": "FeatureCollection",
  "features": [
    {
      "type": "Feature",
      "properties": {
        "norad_id": 25590,
        "name": "COSMOS 2361",
        "group": "musson",
        "lat": 56.05816635398024,
        "lon": -15.220818632859691,
        "alt_km": 1004.6847140138043,
        "timestamp": "2025-12-26T03:50:12.363012+00:00",
        "meta_object_name": "COSMOS 2361",
        "meta_object_id": "1998-076A",
        "meta_epoch": "2025-12-25T10:37:16.860000",
        "meta_mean_motion": 13.73218874,
        "meta_eccentricity": 0.0030332,
        "meta_inclination": 82.9345,
        "meta_ra_of_asc_node": 334.6908,
        "meta_arg_of_pericenter": 228.8467,
        "meta_mean_anomaly": 243.9016,
        "meta_ephemeris_type": 0,
        "meta_classification_type": "U",
        "meta_norad_cat_id": 25590,
        "meta_element_set_no": 999,
        "meta_rev_at_epoch": 35285,
        "meta_bstar": 5.4406e-05,
        "meta_mean_motion_dot": 6.5e-07,
        "meta_mean_motion_ddot": 0,
        "tle_line1": "1 25590U 98076A   25359.44255625  .00000065  00000+0  54406-4 0  9991",
        "tle_line2": "2 25590  82.9345 334.6908 0030332 228.8467 243.9016 13.73218874352857"
      },
      "geometry": {
        "type": "Point",
        "coordinates": [
          -15.220818632859691,
          56.05816635398024
        ]
      }
    },
    {
      "type": "Feature",
      "properties": {
        "norad_id": 26818,
        "name": "COSMOS 2378",
        "group": "musson",
        "lat": 5.732455026757794,
        "lon": 169.0595105527871,
        "alt_km": 962.5885330014053,
        "timestamp": "2025-12-26T03:50:12.363033+00:00",
        "meta_object_name": "COSMOS 2378",
        "meta_object_id": "2001-023A",
        "meta_epoch": "2025-12-25T02:52:27.994944",
        "meta_mean_motion": 13.7414296,
        "meta_eccentricity": 0.00331845,
        "meta_inclination": 82.9272,
        "meta_ra_of_asc_node": 350.5445,
        "meta_arg_of_pericenter": 170.2004,
        "meta_mean_anomaly": 261.4901,
        "meta_ephemeris_type": 0,
        "meta_classification_type": "U",
        "meta_norad_cat_id": 26818,
        "meta_element_set_no": 999,
        "meta_rev_at_epoch": 23093,
        "meta_bstar": 3.3956905e-05,
        "meta_mean_motion_dot": 4.7e-07,
        "meta_mean_motion_ddot": 0,
        "tle_line1": "1 26818U 01023A   25359.11976846  .00000047  00000+0  33957-4 0  9998",
        "tle_line2": "2 26818  82.9272 350.5445 0033184 170.2004 261.4901 13.74142960230933"
      },
      "geometry": {
        "type": "Point",
        "coordinates": [
          169.0595105527871,
          5.732455026757794
        ]
      }
    },
    {
      "type": "Feature",
      "properties": {
        "norad_id": 27436,
        "name": "COSMOS 2389",
        "group": "musson",
        "lat": 69.01218796554882,
        "lon": -44.13417715502752,
        "alt_km": 950.351216814388,
        "timestamp": "2025-12-26T03:50:12.363047+00:00",
        "meta_object_name": "COSMOS 2389",
        "meta_object_id": "2002-026A",
        "meta_epoch": "2025-12-25T08:52:06.455424",
        "meta_mean_motion": 13.75155997,
        "meta_eccentricity": 0.0047068,
        "meta_inclination": 82.9513,
        "meta_ra_of_asc_node": 297.6356,
        "meta_arg_of_pericenter": 26.2532,
        "meta_mean_anomaly": 93.125,
        "meta_ephemeris_type": 0,
        "meta_classification_type": "U",
        "meta_norad_cat_id": 27436,
        "meta_element_set_no": 999,
        "meta_rev_at_epoch": 18322,
        "meta_bstar": 6.7754e-05,
        "meta_mean_motion_dot": 8.1e-07,
        "meta_mean_motion_ddot": 0,
        "tle_line1": "1 27436U 02026A   25359.36951916  .00000081  00000+0  67754-4 0  9997",
        "tle_line2": "2 27436  82.9513 297.6356 0047068  26.2532  93.1250 13.75155997183223"
      },
      "geometry": {
        "type": "Point",
        "coordinates": [
          -44.13417715502752,
          69.01218796554882
        ]
      }
    },
    {
      "type": "Feature",
      "properties": {
        "norad_id": 27818,
        "name": "COSMOS 2398",
        "group": "musson",
        "lat": -67.893532596571,
        "lon": 100.55122521109003,
        "alt_km": 1022.1922624368281,
        "timestamp": "2025-12-26T03:50:12.363059+00:00",
        "meta_object_name": "COSMOS 2398",
        "meta_object_id": "2003-023A",
        "meta_epoch": "2025-12-25T19:56:23.370720",
        "meta_mean_motion": 13.72387179,
        "meta_eccentricity": 0.003269,
        "meta_inclination": 82.9482,
        "meta_ra_of_asc_node": 263.0518,
        "meta_arg_of_pericenter": 76.9374,
        "meta_mean_anomaly": 347.232,
        "meta_ephemeris_type": 0,
        "meta_classification_type": "U",
        "meta_norad_cat_id": 27818,
        "meta_element_set_no": 999,
        "meta_rev_at_epoch": 12996,
        "meta_bstar": 6.8003e-05,
        "meta_mean_motion_dot": 7.8e-07,
        "meta_mean_motion_ddot": 0,
        "tle_line1": "1 27818U 03023A   25359.83082605  .00000078  00000+0  68003-4 0  9995",
        "tle_line2": "2 27818  82.9482 263.0518 0032690  76.9374 347.2320 13.72387179129968"
      },
      "geometry": {
        "type": "Point",
        "coordinates": [
          100.55122521109003,
          -67.893532596571
        ]
      }
    },
    {
      "type": "Feature",
      "properties": {
        "norad_id": 28380,
        "name": "COSMOS 2407",
        "group": "musson",
        "lat": -82.04841500350251,
        "lon": 140.7337988800531,
        "alt_km": 991.5281333310495,
        "timestamp": "2025-12-26T03:50:12.363071+00:00",
        "meta_object_name": "COSMOS 2407",
        "meta_object_id": "2004-028A",
        "meta_epoch": "2025-12-25T16:22:25.250016",
        "meta_mean_motion": 13.7631509,
        "meta_eccentricity": 0.0039705,
        "meta_inclination": 82.9592,
        "meta_ra_of_asc_node": 203.3098,
        "meta_arg_of_pericenter": 19.4498,
        "meta_mean_anomaly": 49.5089,
        "meta_ephemeris_type": 0,
        "meta_classification_type": "U",
        "meta_norad_cat_id": 28380,
        "meta_element_set_no": 999,
        "meta_rev_at_epoch": 7601,
        "meta_bstar": 3.6831e-05,
        "meta_mean_motion_dot": 5.1e-07,
        "meta_mean_motion_ddot": 0,
        "tle_line1": "1 28380U 04028A   25359.68223669  .00000051  00000+0  36831-4 0  9991",
        "tle_line2": "2 28380  82.9592 203.3098 0039705  19.4498  49.5089 13.76315090 76016"
      },
      "geometry": {
        "type": "Point",
        "coordinates": [
          140.7337988800531,
          -82.04841500350251
        ]
      }
    },
    {
      "type": "Feature",
      "properties": {
        "norad_id": 28521,
        "name": "COSMOS 2414",
        "group": "musson",
        "lat": 16.067629705298753,
        "lon": 176.55452695204076,
        "alt_km": 934.4283923116827,
        "timestamp": "2025-12-26T03:50:12.363082+00:00",
        "meta_object_name": "COSMOS 2414",
        "meta_object_id": "2005-002A",
        "meta_epoch": "2025-12-25T10:27:24.414336",
        "meta_mean_motion": 13.87904583,
        "meta_eccentricity": 0.0041426,
        "meta_inclination": 82.9488,
        "meta_ra_of_asc_node": 175.0593,
        "meta_arg_of_pericenter": 104.4935,
        "meta_mean_anomaly": 256.083,
        "meta_ephemeris_type": 0,
        "meta_classification_type": "U",
        "meta_norad_cat_id": 28521,
        "meta_element_set_no": 999,
        "meta_rev_at_epoch": 5971,
        "meta_bstar": 4.7795e-05,
        "meta_mean_motion_dot": 7.3e-07,
        "meta_mean_motion_ddot": 0,
        "tle_line1": "1 28521U 05002A   25359.43569924  .00000073  00000+0  47795-4 0  9996",
        "tle_line2": "2 28521  82.9488 175.0593 0041426 104.4935 256.0830 13.87904583 59716"
      },
      "geometry": {
        "type": "Point",
        "coordinates": [
          176.55452695204076,
          16.067629705298753
        ]
      }
    },
    {
      "type": "Feature",
      "properties": {
        "norad_id": 32052,
        "name": "COSMOS 2429",
        "group": "musson",
        "lat": -73.48185692725511,
        "lon": 177.9620277557612,
        "alt_km": 996.1181055928919,
        "timestamp": "2025-12-26T03:50:12.363093+00:00",
        "meta_object_name": "COSMOS 2429",
        "meta_object_id": "2007-038A",
        "meta_epoch": "2025-12-25T10:52:56.318304",
        "meta_mean_motion": 13.75150602,
        "meta_eccentricity": 0.0038484,
        "meta_inclination": 82.9808,
        "meta_ra_of_asc_node": 333.936,
        "meta_arg_of_pericenter": 2.8321,
        "meta_mean_anomaly": 357.3045,
        "meta_ephemeris_type": 0,
        "meta_classification_type": "U",
        "meta_norad_cat_id": 32052,
        "meta_element_set_no": 999,
        "meta_rev_at_epoch": 91777,
        "meta_bstar": 4.8879e-05,
        "meta_mean_motion_dot": 6.2e-07,
        "meta_mean_motion_ddot": 0,
        "tle_line1": "1 32052U 07038A   25359.45342961  .00000062  00000+0  48879-4 0  9995",
        "tle_line2": "2 32052  82.9808 333.9360 0038484   2.8321 357.3045 13.75150602917777"
      },
      "geometry": {
        "type": "Point",
        "coordinates": [
          177.9620277557612,
          -73.48185692725511
        ]
      }
    },
    {
      "type": "Feature",
      "properties": {
        "norad_id": 35635,
        "name": "COSMOS 2454",
        "group": "musson",
        "lat": 14.887226684411072,
        "lon": -23.411801849529766,
        "alt_km": 938.5221319346865,
        "timestamp": "2025-12-26T03:50:12.363104+00:00",
        "meta_object_name": "COSMOS 2454",
        "meta_object_id": "2009-039A",
        "meta_epoch": "2025-12-25T20:39:35.997120",
        "meta_mean_motion": 13.89930313,
        "meta_eccentricity": 0.0019958,
        "meta_inclination": 82.9559,
        "meta_ra_of_asc_node": 158.6985,
        "meta_arg_of_pericenter": 38.3127,
        "meta_mean_anomaly": 70.9674,
        "meta_ephemeris_type": 0,
        "meta_classification_type": "U",
        "meta_norad_cat_id": 35635,
        "meta_element_set_no": 999,
        "meta_rev_at_epoch": 83332,
        "meta_bstar": 6.078e-05,
        "meta_mean_motion_dot": 9.1e-07,
        "meta_mean_motion_ddot": 0,
        "tle_line1": "1 35635U 09039A   25359.86083330  .00000091  00000+0  60780-4 0  9992",
        "tle_line2": "2 35635  82.9559 158.6985 0019958  38.3127  70.9674 13.89930313833322"
      },
      "geometry": {
        "type": "Point",
        "coordinates": [
          -23.411801849529766,
          14.887226684411072
        ]
      }
    },
    {
      "type": "Feature",
      "properties": {
        "norad_id": 36519,
        "name": "COSMOS 2463",
        "group": "musson",
        "lat": 42.665203313497365,
        "lon": 23.38930631635228,
        "alt_km": 1013.0989432707829,
        "timestamp": "2025-12-26T03:50:12.363114+00:00",
        "meta_object_name": "COSMOS 2463",
        "meta_object_id": "2010-017A",
        "meta_epoch": "2025-12-25T14:11:33.904896",
        "meta_mean_motion": 13.71650272,
        "meta_eccentricity": 0.0034817,
        "meta_inclination": 82.9603,
        "meta_ra_of_asc_node": 17.2678,
        "meta_arg_of_pericenter": 251.0493,
        "meta_mean_anomaly": 226.2748,
        "meta_ephemeris_type": 0,
        "meta_classification_type": "U",
        "meta_norad_cat_id": 36519,
        "meta_element_set_no": 999,
        "meta_rev_at_epoch": 78413,
        "meta_bstar": 3.5333e-05,
        "meta_mean_motion_dot": 4.7e-07,
        "meta_mean_motion_ddot": 0,
        "tle_line1": "1 36519U 10017A   25359.59136464  .00000047  00000+0  35333-4 0  9996",
        "tle_line2": "2 36519  82.9603  17.2678 0034817 251.0493 226.2748 13.71650272784130"
      },
      "geometry": {
        "type": "Point",
        "coordinates": [
          23.38930631635228,
          42.665203313497365
        ]
      }
    }
  ]
}